[{"OBJECT_NAME":"STARLINK-6063","OBJECT_ID":"2023-078AW","EPOCH":"2026-03-09T22:35:23.207712","MEAN_MOTION":15.58730037,"ECCENTRICITY":0.00035775,"INCLINATION":70.0007,"RA_OF_ASC_NODE":295.002,"ARG_OF_PERICENTER":255.2165,"MEAN_ANOMALY":104.8629,"EPHEMERIS_TYPE":0,"CLASSIFICATION_TYPE":"U","NORAD_CAT_ID":56811,"ELEMENT_SET_NO":999,"REV_AT_EPOCH":15392,"BSTAR":0.00025546943,"MEAN_MOTION_DOT":0.00019616,"MEAN_MOTION_DDOT":0},{"OBJECT_NAME":"STARLINK-36620","OBJECT_ID":"2026-022G","EPOCH":"2026-03-09T22:00:01.999584","MEAN_MOTION":15.69211833,"ECCENTRICITY":0.00014478,"INCLINATION":97.2845,"RA_OF_ASC_NODE":102.899,"ARG_OF_PERICENTER":67.0153,"MEAN_ANOMALY":315.383,"EPHEMERIS_TYPE":0,"CLASSIFICATION_TYPE":"U","NORAD_CAT_ID":67654,"ELEMENT_SET_NO":999,"REV_AT_EPOCH":607,"BSTAR":-0.018655391,"MEAN_MOTION_DOT":-0.01919279,"MEAN_MOTION_DDOT":0}]
